[{"OBJECT_NAME":"FLOCK 4BE-32","OBJECT_ID":"2024-149AF","EPOCH":"2026-03-28T18:53:04.907904","MEAN_MOTION":15.39316746,"ECCENTRICITY":0.00042291,"INCLINATION":97.3743,"RA_OF_ASC_NODE":171.0106,"ARG_OF_PERICENTER":183.3043,"MEAN_ANOMALY":176.8175,"EPHEMERIS_TYPE":0,"CLASSIFICATION_TYPE":"U","NORAD_CAT_ID":60497,"ELEMENT_SET_NO":999,"REV_AT_EPOCH":8995,"BSTAR":0.00059108756,"MEAN_MOTION_DOT":0.00023025,"MEAN_MOTION_DDOT":0},{"OBJECT_NAME":"FLOCK 4BE-30","OBJECT_ID":"2024-149AH","EPOCH":"2026-03-28T18:54:47.574432","MEAN_MOTION":15.41191523,"ECCENTRICITY":0.000332,"INCLINATION":97.3818,"RA_OF_ASC_NODE":171.6186,"ARG_OF_PERICENTER":213.9421,"MEAN_ANOMALY":146.1613,"EPHEMERIS_TYPE":0,"CLASSIFICATION_TYPE":"U","NORAD_CAT_ID":60499,"ELEMENT_SET_NO":999,"REV_AT_EPOCH":8933,"BSTAR":0.0022075277,"MEAN_MOTION_DOT":0.00092515,"MEAN_MOTION_DDOT":0},{"OBJECT_NAME":"FLOCK 4BE-11","OBJECT_ID":"2024-149AK","EPOCH":"2026-03-28T18:14:32.342784","MEAN_MOTION":15.40127079,"ECCENTRICITY":0.00044344,"INCLINATION":97.3724,"RA_OF_ASC_NODE":171.1338,"ARG_OF_PERICENTER":185.573,"MEAN_ANOMALY":174.5468,"EPHEMERIS_TYPE":0,"CLASSIFICATION_TYPE":"U","NORAD_CAT_ID":60501,"ELEMENT_SET_NO":999,"REV_AT_EPOCH":8996,"BSTAR":0.00060016306,"MEAN_MOTION_DOT":0.00024013,"MEAN_MOTION_DDOT":0},{"OBJECT_NAME":"FLOCK 4BE-24","OBJECT_ID":"2024-149AP","EPOCH":"2026-03-28T19:24:23.102208","MEAN_MOTION":15.39981547,"ECCENTRICITY":0.00043968,"INCLINATION":97.3739,"RA_OF_ASC_NODE":171.4279,"ARG_OF_PERICENTER":195.3012,"MEAN_ANOMALY":164.8102,"EPHEMERIS_TYPE":0,"CLASSIFICATION_TYPE":"U","NORAD_CAT_ID":60505,"ELEMENT_SET_NO":999,"REV_AT_EPOCH":8998,"BSTAR":0.00058325871,"MEAN_MOTION_DOT":0.00023221,"MEAN_MOTION_DDOT":0},{"OBJECT_NAME":"TANAGER-1","OBJECT_ID":"2024-149AR","EPOCH":"2026-03-28T08:43:51.558816","MEAN_MOTION":15.43596939,"ECCENTRICITY":0.00075615,"INCLINATION":97.3762,"RA_OF_ASC_NODE":180.9996,"ARG_OF_PERICENTER":217.2755,"MEAN_ANOMALY":142.7969,"EPHEMERIS_TYPE":0,"CLASSIFICATION_TYPE":"U","NORAD_CAT_ID":60507,"ELEMENT_SET_NO":999,"REV_AT_EPOCH":9056,"BSTAR":0.00054925687,"MEAN_MOTION_DOT":0.00024678,"MEAN_MOTION_DDOT":0},{"OBJECT_NAME":"FLOCK 4BE-29","OBJECT_ID":"2024-149AT","EPOCH":"2026-03-28T19:39:16.321824","MEAN_MOTION":15.41301228,"ECCENTRICITY":0.00028075,"INCLINATION":97.3826,"RA_OF_ASC_NODE":172.6465,"ARG_OF_PERICENTER":197.4944,"MEAN_ANOMALY":162.6207,"EPHEMERIS_TYPE":0,"CLASSIFICATION_TYPE":"U","NORAD_CAT_ID":60509,"ELEMENT_SET_NO":999,"REV_AT_EPOCH":9002,"BSTAR":0.00057814518,"MEAN_MOTION_DOT":0.00024039,"MEAN_MOTION_DDOT":0},{"OBJECT_NAME":"FLOCK 4BE-2","OBJECT_ID":"2024-149AV","EPOCH":"2026-03-28T19:28:55.591392","MEAN_MOTION":15.44998834,"ECCENTRICITY":0.00041375,"INCLINATION":97.3826,"RA_OF_ASC_NODE":173.3132,"ARG_OF_PERICENTER":197.4966,"MEAN_ANOMALY":162.614,"EPHEMERIS_TYPE":0,"CLASSIFICATION_TYPE":"U","NORAD_CAT_ID":60511,"ELEMENT_SET_NO":999,"REV_AT_EPOCH":9006,"BSTAR":0.0010744691,"MEAN_MOTION_DOT":0.0005084,"MEAN_MOTION_DDOT":0},{"OBJECT_NAME":"FLOCK 4BE-13","OBJECT_ID":"2024-149AW","EPOCH":"2026-03-28T18:06:34.105824","MEAN_MOTION":15.39551983,"ECCENTRICITY":0.00044207,"INCLINATION":97.3737,"RA_OF_ASC_NODE":171.4639,"ARG_OF_PERICENTER":184.6941,"MEAN_ANOMALY":175.4264,"EPHEMERIS_TYPE":0,"CLASSIFICATION_TYPE":"U","NORAD_CAT_ID":60512,"ELEMENT_SET_NO":999,"REV_AT_EPOCH":8998,"BSTAR":0.00052397432,"MEAN_MOTION_DOT":0.00020553,"MEAN_MOTION_DDOT":0},{"OBJECT_NAME":"FLOCK 4BE-27","OBJECT_ID":"2024-149AX","EPOCH":"2026-03-28T18:00:51.770016","MEAN_MOTION":15.32992973,"ECCENTRICITY":0.00033871,"INCLINATION":97.3847,"RA_OF_ASC_NODE":169.6456,"ARG_OF_PERICENTER":209.6749,"MEAN_ANOMALY":150.4302,"EPHEMERIS_TYPE":0,"CLASSIFICATION_TYPE":"U","NORAD_CAT_ID":60513,"ELEMENT_SET_NO":999,"REV_AT_EPOCH":8981,"BSTAR":0.00036481252,"MEAN_MOTION_DOT":0.00011555,"MEAN_MOTION_DDOT":0},{"OBJECT_NAME":"FLOCK 4BE-9","OBJECT_ID":"2024-149AY","EPOCH":"2026-03-28T18:08:15.850464","MEAN_MOTION":15.3826378,"ECCENTRICITY":0.00028528,"INCLINATION":97.3809,"RA_OF_ASC_NODE":171.3953,"ARG_OF_PERICENTER":196.2414,"MEAN_ANOMALY":163.874,"EPHEMERIS_TYPE":0,"CLASSIFICATION_TYPE":"U","NORAD_CAT_ID":60514,"ELEMENT_SET_NO":999,"REV_AT_EPOCH":8994,"BSTAR":0.0005034323,"MEAN_MOTION_DOT":0.00018923,"MEAN_MOTION_DDOT":0},{"OBJECT_NAME":"FLOCK 4BE-6","OBJECT_ID":"2024-149BA","EPOCH":"2026-03-28T18:59:56.246208","MEAN_MOTION":15.37258293,"ECCENTRICITY":0.0003549,"INCLINATION":97.381,"RA_OF_ASC_NODE":170.9274,"ARG_OF_PERICENTER":199.4443,"MEAN_ANOMALY":160.6667,"EPHEMERIS_TYPE":0,"CLASSIFICATION_TYPE":"U","NORAD_CAT_ID":60516,"ELEMENT_SET_NO":999,"REV_AT_EPOCH":8991,"BSTAR":0.00050377212,"MEAN_MOTION_DOT":0.00018329,"MEAN_MOTION_DDOT":0},{"OBJECT_NAME":"FLOCK 4BE-14","OBJECT_ID":"2024-149BB","EPOCH":"2026-03-28T18:38:33.029088","MEAN_MOTION":15.38396901,"ECCENTRICITY":0.00045252,"INCLINATION":97.3723,"RA_OF_ASC_NODE":170.9938,"ARG_OF_PERICENTER":204.3852,"MEAN_ANOMALY":155.718,"EPHEMERIS_TYPE":0,"CLASSIFICATION_TYPE":"U","NORAD_CAT_ID":60517,"ELEMENT_SET_NO":999,"REV_AT_EPOCH":8995,"BSTAR":0.00063781156,"MEAN_MOTION_DOT":0.00024121,"MEAN_MOTION_DDOT":0},{"OBJECT_NAME":"FLOCK 4BE-1","OBJECT_ID":"2024-149BC","EPOCH":"2026-03-28T05:19:14.261376","MEAN_MOTION":15.39764342,"ECCENTRICITY":0.00042482,"INCLINATION":97.3796,"RA_OF_ASC_NODE":171.4373,"ARG_OF_PERICENTER":205.4108,"MEAN_ANOMALY":154.6929,"EPHEMERIS_TYPE":0,"CLASSIFICATION_TYPE":"U","NORAD_CAT_ID":60518,"ELEMENT_SET_NO":999,"REV_AT_EPOCH":8990,"BSTAR":0.00066264513,"MEAN_MOTION_DOT":0.00026214,"MEAN_MOTION_DDOT":0},{"OBJECT_NAME":"FLOCK 4BE-28","OBJECT_ID":"2024-149BD","EPOCH":"2026-03-28T17:48:50.780160","MEAN_MOTION":15.41900495,"ECCENTRICITY":0.00044548,"INCLINATION":97.3768,"RA_OF_ASC_NODE":172.4482,"ARG_OF_PERICENTER":203.6443,"MEAN_ANOMALY":156.46,"EPHEMERIS_TYPE":0,"CLASSIFICATION_TYPE":"U","NORAD_CAT_ID":60519,"ELEMENT_SET_NO":999,"REV_AT_EPOCH":9003,"BSTAR":0.00059344886,"MEAN_MOTION_DOT":0.00025183,"MEAN_MOTION_DDOT":0},{"OBJECT_NAME":"FLOCK 4BE-35","OBJECT_ID":"2024-149CU","EPOCH":"2026-03-28T17:50:15.471168","MEAN_MOTION":15.4752865,"ECCENTRICITY":0.00061241,"INCLINATION":97.3761,"RA_OF_ASC_NODE":171.3079,"ARG_OF_PERICENTER":210.3787,"MEAN_ANOMALY":149.7109,"EPHEMERIS_TYPE":0,"CLASSIFICATION_TYPE":"U","NORAD_CAT_ID":60558,"ELEMENT_SET_NO":999,"REV_AT_EPOCH":8994,"BSTAR":0.0024264288,"MEAN_MOTION_DOT":0.00126578,"MEAN_MOTION_DDOT":0},{"OBJECT_NAME":"FLOCK 4BE-5","OBJECT_ID":"2024-149CV","EPOCH":"2026-03-28T19:08:56.959008","MEAN_MOTION":15.37733996,"ECCENTRICITY":0.00033519,"INCLINATION":97.3862,"RA_OF_ASC_NODE":171.1687,"ARG_OF_PERICENTER":201.2342,"MEAN_ANOMALY":158.8764,"EPHEMERIS_TYPE":0,"CLASSIFICATION_TYPE":"U","NORAD_CAT_ID":60559,"ELEMENT_SET_NO":999,"REV_AT_EPOCH":8991,"BSTAR":0.00059384,"MEAN_MOTION_DOT":0.00021965,"MEAN_MOTION_DDOT":0}]
